GLOBALSTAR M045         
1 25676U 99019A   25273.43031675 -.00000096  00000+0 -19972-4 0  9990
2 25676  52.0003   5.3027 0000784 101.3106 337.8732 12.27065230206319
GLOBALSTAR M019         
1 25677U 99019B   25273.02404043 -.00000174  00000+0 -87753-3 0  9997
2 25677  51.9861 144.2050 0001298 133.4388   7.4196 12.13877265197876
GLOBALSTAR M044         
1 25678U 99019C   25273.48205976 -.00000022  00000+0  86339-3 0  9992
2 25678  51.9947 107.4633 0005266 239.6413 152.0454 11.90260577183861
GLOBALSTAR M042         
1 25679U 99019D   25273.26934897 -.00000084  00000+0  80750-4 0  9990
2 25679  51.9994 114.3030 0003412 140.1350  31.9670 12.22088554198106
GLOBALSTAR M025         
1 25770U 99031A   25273.49491520 -.00000049  00000+0  58287-3 0  9992
2 25770  51.9805 275.3203 0002182 324.4755 207.5523 11.22558272493539
GLOBALSTAR M049         
1 25771U 99031B   25273.42049259 -.00000135  00000+0 -24211-2 0  9990
2 25771  51.9895 315.5466 0002795 192.6590 167.4137 11.12121928129139
GLOBALSTAR M047         
1 25772U 99031C   25272.35230943 -.00000055  00000+0  40095-3 0  9993
2 25772  51.9841 304.9848 0016511  81.8751 278.3928 11.31929874482900
GLOBALSTAR M052         
1 25773U 99031D   25273.36812352 -.00000097  00000+0 -10362-2 0  9996
2 25773  51.9872  62.8518 0002401   7.5034   4.0068 11.15061120490249
